#dP2024 10 11  0  0  0.00000000      96 __u+U IGS20 FIT  IAC
## 2335 432000.00000000   900.00000000 60594 0.0000000000000
+  132   C01C02C03C04C05C06C07C08C09C10C11C12C13C14C16C19C20
+        C21C22C23C24C25C26C27C28C29C30C32C33C34C35C36C37C38
+        C39C40C41C42C43C44C45C59C60C62E02E03E04E05E06E07E08
+        E09E10E11E12E13E14E15E18E19E21E24E25E26E27E29E30E31
+        E33E34E36G02G03G04G05G06G07G08G09G10G11G12G13G14G15
+        G16G17G18G19G20G21G22G23G24G25G26G27G28G29G30G31G32
+        J02J03J04J07R01R02R03R04R05R06R07R08R09R10R11R12R13
+        R14R15R16R17R18R19R20R21R22R23R24R25R26  0  0  0  0
++        16 16 16 16 16  9  9  9  9  9  9  9  9  8  9  7  7
++         7  7  7  7  7  7  7  7  7  7  7  7  7  7  7  7  8
++         8  8  7  7  7  7  7 17 20 16  4  4  4  4  4  4  4
++         4  4  4  4  4  4  5  4  4  4  4  4  4  4  4  4  4
++         4  4  5  4  4  4  4  4  4  4  4  4  4  4  4  4  4
++         4  4  4  4  4  4  4  4  4  4  4  4  4  4  4  4  4
++        10 10 10 15  7  6  6  6  6 15  6  6  6 15  6  6 15
++         6  6  6  6  6  8  8  6  6 15  6  8  8  0  0  0  0
%c M  cc GPS ccc cccc cccc cccc cccc ccccc ccccc ccccc ccccc
%c cc cc ccc ccc cccc cccc cccc cccc ccccc ccccc ccccc ccccc
%f  0.0000000  0.000000000  0.00000000000  0.000000000000000
%f  0.0000000  0.000000000  0.00000000000  0.000000000000000
%i    0    0    0    0      0      0      0      0         0
%i    0    0    0    0      0      0      0      0         0
/* INFORMATION & ANALYSIS CENTER (IAC)            RAPID DATA
/* S/V CLOCKS ARE ALIGNED TO GNSS TIME                      
/* G:C1WC2W R:C1PC2P E:C1XC5X C:C2IC6I J:C1CC2S             
/* PCV:IGS20_2317 OL/AL:FES2004  NONE     YN ORB:CoN CLK:CoN
*  2024 10 11 17  0  0.00000000
PC01 -34366.766529  24452.043225   -324.856734   -382.933471
PC02   4406.637420  41857.859479  -2056.365569    849.090774
PC03 -14707.256015  39479.760200   -784.028304    864.680913
PC04 -39661.798373  14406.139560    152.249335   -446.733677
PC05  21786.662050  36040.878779  -1482.219264   -299.683937
PC06  -1551.337281  38063.725141 -17690.909163 999999.999999
PC07 -11644.800006  26432.660494  30810.788871   -298.010701
PC08 -19478.300830  34803.831867 -14081.734652   -648.034755
PC09   2154.902549  40090.839641 -11220.806552   -462.373679
PC10  -2801.121804  27844.164157  31907.906404   -223.375449
PC11 -19593.044208 -19565.289993   3481.211109    188.923071
PC12  -7011.871235 -22814.782136 -14405.917401   -259.653493
PC13 -12765.916866  34994.972721 -19871.012386     97.488434
PC14 -18880.263231  -8685.816967  18598.423941   -299.449001
PC16  -5296.573720  35035.829068 -22258.604645    189.904497
PC19  25213.792916   2524.109364 -11699.937874   -947.423576
PC20  11460.542886  12663.086234 -22076.340980   -933.774339
PC21  10827.534435 -16131.522269  20042.243818   -922.882089
PC22  25469.807973  -9687.819011   6049.286549    148.585184
PC23 -17262.210604  13769.833560 -17066.793546   -855.382183
PC24  -3813.568302 -23384.001900 -14737.792598    802.685287
PC25 -15001.613077  -6671.071383 -22576.992668    530.184229
PC26   8840.393252 -26399.018804   1597.805443   -361.327755
PC27  -1461.664739  19396.922224  19993.309939    380.999622
PC28 -15125.468861   6840.269333  22440.286232    295.732036
PC29  22634.241527  12466.866098 -10543.016371    347.247917
PC30  14472.513259  22579.574300   7679.673734   -260.570761
PC32 -10817.287638  16210.994888 -19966.105601   -763.332975
PC33 -25159.551573  -2455.975732  11799.607352   -959.178243
PC34 -15704.188903 -22268.591742  -6061.773746    540.208789
PC35  15348.923675  -6910.318994 -22263.990644    237.993417
PC36  15032.627201   6510.127325  22611.762197    200.829876
PC37  -9526.230271  26188.935797  -1745.681385   -893.816138
PC38 -23090.035414  34939.665098  -5601.145015    184.626885
PC39  -7135.221470  31958.049630 -26368.774724    -10.093201
PC40 -16640.544092  19664.883931  33354.391763    -96.129871
PC41 -25816.271833   9256.819893  -5077.862503   -899.678785
PC42  -9449.126365 -13484.890189  22558.450026   -492.171093
PC43 -22604.435823 -13229.182089   9645.894646     88.634614
PC44    932.550599 -19467.167349 -19992.382603    619.426524
PC45  17298.671581 -13198.741147  17452.926041   -146.439669
PC59 -32302.381973  27060.822338  -1391.808507     -0.582947
PC60   7257.627984  41530.283036  -1110.823310      0.076627
PC62 -39603.016376  14454.772166    726.037319     -0.017396
PE02    468.299536 -19599.426955 -22173.025076    166.148726
PE03 -10896.031571 -19280.622738  19622.758929   -146.216298
PE04  26235.180741  13303.311016  -3310.163557    -54.678689
PE05  10481.006717 -13779.991765  24004.581173   4791.987531
PE06  28097.721031   6963.110452   6143.517378    -35.151099
PE07 -26005.015225    -55.549334 -14135.364820   -146.797919
PE08 -25899.009504 -13724.213757   4087.010142   -349.813399
PE09  26018.694080    218.855536  14117.270148   -622.204242
PE10  16288.091572   6538.383963 -23839.425277   -662.505693
PE11  15304.525479  -5869.359748 -24653.606439   1300.787829
PE12  14877.319044  16438.668776 -19607.743688  -1247.538699
PE13 -15356.553560   5194.611932  24773.008490    -25.650072
PE14  30117.804080    952.966960 -12052.879187    287.421008
PE15 -14643.506731 -17106.849620  19218.830022   -132.460182
PE18 -19717.767719   3446.949657  12635.816306    646.946517
PE19   8862.453553  19184.681398 -20725.745020    760.316511
PE21 -18096.922207  21630.703779   8995.623429   -621.877400
PE24  25689.045894 -10769.851057   9969.599136  -1036.911586
PE25  18418.484802 -21516.547178  -8582.971580     10.017520
PE26  -6891.129357  24388.143306  15311.432617   -243.788436
PE27 -25662.911673  10953.431014  -9892.001679   -475.217048
PE29 -10163.811554  14121.374567 -23958.522540    -36.895285
PE30 -18055.483341  -6094.558203 -22660.475223   -808.541193
PE31  17993.284121   6061.164119  22716.075452    -38.911948
PE33   5057.594583  29103.498194  -2011.296821     15.767489
PE34  -5388.310101 -28991.785519   2460.284317   -139.444703
PE36   7101.214693 -24019.182266 -15767.377100   -295.611735
PG02 -15477.273442   1218.261568  22049.152745   -339.283254
PG03 -22123.754822  11452.677604   8884.921257    567.008630
PG04 -22843.558176   1409.136490 -13589.493741    459.862277
PG05  17332.788608   2342.621016 -20189.366884   -189.462202
PG06   5027.636597  26015.449486   -424.366416    -31.219314
PG07  -8109.110139  18692.998578 -16258.794367    -28.634298
PG08 -26005.546113  -5980.962283   2379.542509    381.164275
PG09 -14968.692161   9834.053439 -19725.794372    394.308057
PG10   4432.613401 -19388.548932  17645.305692   -154.995744
PG11  12588.693293  18786.181063 -13946.064791   -743.079104
PG12  22636.182774  -7084.000341  11622.533782   -544.413710
PG13  22314.206438  14204.755351  -3783.981668    680.966311
PG14  -8220.237491  20592.194216  14499.552973    515.298296
PG15  26351.639253   2902.433074   2157.102588    214.550416
PG16 -14337.710937  -7939.225964 -21320.780125   -157.576374
PG17   1378.599769  16390.085111  21236.962401    598.870383
PG18   7479.236936 -19706.127455 -15996.931344   -657.570828
PG19  11489.158573  17666.717701  16272.946155    549.240136
PG20   9603.976178  12272.492731 -21448.184714    369.773628
PG21 -16706.912427  -6153.267365  20414.661655     99.979363
PG22  -1280.312687  18144.159944  19861.441715    -70.125952
PG23  15560.886129 -20373.501622   6503.755114    339.449213
PG24  16256.516158   1151.029213  20581.663457   -485.067704
PG25  19853.448146 -17389.242465    772.953969    499.547684
PG26  -4822.767121 -16672.961456 -20177.109509     58.236879
PG27 -22038.784005 -13127.431916  -7985.888270    -34.490058
PG28  -4752.235009 -26065.627696   1829.051269   -442.379326
PG29  17298.984166  -6853.568067 -19043.300751   -571.959796
PG30  -1156.815457  25031.051297  -8236.880181   -304.386793
PG31 -11112.756430 -21791.974315 -10097.108243   -223.533870
PG32  -4613.325105 -16546.316473  20528.044437   -587.890821
PJ02 -30388.441588  28538.176688  11867.274759     -1.240214
PJ03 -26491.824921  24400.040082  27058.045132     -4.418876
PJ04 -32612.458519  20568.147623 -12034.319331     22.004042
PJ07 -25409.238738  33655.922264    -25.750664     -0.007219
PR01  16898.663238  -9087.387878  16805.363059    100.702129
PR02   -577.463005 -10752.590772  23162.170753    -25.115004
PR03 -18318.678025  -7011.996717  16386.871520    109.224311
PR04 -25502.493123    205.434236    955.290259    258.813396
PR05 -19259.686173   7368.962132 -15031.339443    138.996339
PR06   2389.203600  10774.309741 -23013.877900   -184.165974
PR07  18640.516171   6818.054157 -15952.102101     92.728768
PR08  25470.332959   -609.528703   -581.250234     -6.417972
PR09  -5094.646760  22570.153108  10663.371320    214.123568
PR10   4277.184822  13837.957355  21010.730978   -228.973108
PR11  13376.075829  -3788.885214  21401.380273      9.543230
PR12  14266.338733 -19901.041280   7150.507257     45.905431
PR13   7222.559758 -23019.246687  -8290.249200    -52.246420
PR14  -5741.350962 -11986.077422 -21763.622130     27.063900
PR15 -14006.870362   5394.335855 -20602.756751     74.989575
PR16 -14178.251571  19881.339711  -7301.857889     29.861270
PR17 -15240.855550 -19571.790339   5846.123385    129.862687
PR18 -14836.375054  -7730.133591  19291.991432    166.385976
PR19  -8361.993876   6365.543352  23248.242774   -294.496911
PR20   5523.156080  21497.118753  12558.329353   -120.314200
PR21  14847.621754  20155.359447  -4989.299795   -141.908675
PR22  14623.808132   6747.622143 -19748.913647     23.725797
PR23   6535.621859  -9206.982297 -22873.636212   -135.314815
PR24  -6678.539417 -21500.246076 -11944.743937    -75.602196
PR25  14670.286559  19958.180434  -6144.044583    -92.937931
PR26  25410.634188     38.125152  -2306.263131     75.405273
EOF
